NORAD_CAT_ID,OBJECT_NAME,OBJECT_TYPE,EPOCH,MEAN_MOTION,ECCENTRICITY,INCLINATION,RA_OF_ASC_NODE,ARG_OF_PERICENTER,MEAN_ANOMALY,BSTAR,MEAN_MOTION_DOT,MEAN_MOTION_DDOT,TLE_LINE0,TLE_LINE1,TLE_LINE2,SEMIMAJOR_AXIS,PERIOD,APOGEE,PERIGEE,DECAYED
52304.0,STARLINK-3744,PAYLOAD,2022-12-07 19:50:41,15.08835596,0.0002446,53.2201,21.6474,40.4526,319.6647,7.3526e-06,-1.71e-06,0.0,0 STARLINK-3744,1 52304U 22041AV  22341.82686772 -.00000171  00000-0  73526-5 0  9999,2 52304  53.2201  21.6474 0002446  40.4526 319.6647 15.08835596 35318,6917.894,95.438,541.451,538.067,0.0
52304.0,STARLINK-3744,PAYLOAD,2022-12-08 03:47:36,15.0883738,0.0002027,53.2202,20.16,27.6354,332.4746,1.8114e-05,0.0,0.0,0 STARLINK-3744,1 52304U 22041AV  22342.15806434  .00000000  00000-0  18114-4 0  9996,2 52304  53.2202  20.1600 0002027  27.6354 332.4746 15.08837380 36581,6917.888000000001,95.438,541.156,538.351,0.0
52304.0,STARLINK-3744,PAYLOAD,2022-12-08 11:44:32,15.08840568,0.0002224,53.2195,18.6733,37.2333,322.8813,6.1422e-05,6.89e-06,0.0,0 STARLINK-3744,1 52304U 22041AV  22342.48926145  .00000689  00000-0  61422-4 0  9997,2 52304  53.2195  18.6733 0002224  37.2333 322.8813 15.08840568 35415,6917.879,95.438,541.2819999999998,538.205,0.0
52304.0,STARLINK-3744,PAYLOAD,2022-12-08 19:41:26,15.0884607,0.0001744,53.2201,17.1868,317.8829,42.2029,2.6117e-05,1.28e-06,0.0,0 STARLINK-3744,1 52304U 22041AV  22342.82044649  .00000128  00000-0  26117-4 0  9995,2 52304  53.2201  17.1868 0001744 317.8829  42.2029 15.08846070 36685,6917.861999999999,95.437,540.933,538.52,0.0
52304.0,STARLINK-3744,PAYLOAD,2022-12-09 19:32:11,15.08862451,0.0004844,53.2199,12.7264,286.4359,73.6101,0.00016552,2.348e-05,0.0,0 STARLINK-3744,1 52304U 22041AV  22343.81402452  .00002348  00000-0  16552-3 0  9992,2 52304  53.2199  12.7264 0004844 286.4359  73.6101 15.08862451 36832,6917.812,95.436,543.028,536.326,0.0
52304.0,STARLINK-3744,PAYLOAD,2022-12-10 13:01:30,15.08837073,0.0002735,53.219,9.4584,23.4119,336.6997,3.566e-05,2.79e-06,0.0,0 STARLINK-3744,1 52304U 22041AV  22344.54270840  .00000279  00000-0  35660-4 0  9990,2 52304  53.2190   9.4584 0002735  23.4119 336.6997 15.08837073 35725,6917.889,95.438,541.646,537.862,0.0
52304.0,STARLINK-3744,PAYLOAD,2022-12-11 08:06:06,15.08774313,0.0002057,53.2193,5.8885,18.5888,341.5178,0.00076375,0.00011866,0.0,0 STARLINK-3744,1 52304U 22041AV  22345.33757642  .00011866  00000-0  76375-3 0  9999,2 52304  53.2193   5.8885 0002057  18.5888 341.5178 15.08774313 37069,6918.081,95.442,541.369,538.523,0.0
52304.0,STARLINK-3744,PAYLOAD,2022-12-11 12:52:16,15.08826431,0.0002139,53.2188,4.995,17.7033,342.4033,0.00022129,3.234e-05,0.0,0 STARLINK-3744,1 52304U 22041AV  22345.53630381  .00003234  00000-0  22129-3 0  9999,2 52304  53.2188   4.9950 0002139  17.7033 342.4033 15.08826431 37092,6917.922,95.438,541.2669999999998,538.307,0.0
52304.0,STARLINK-3744,PAYLOAD,2022-12-12 06:21:32,15.08803237,0.0001388,53.2185,1.7208,1.5235,358.5761,0.00035957,5.434e-05,0.0,0 STARLINK-3744,1 52304U 22041AV  22346.26495799  .00005434  00000-0  35957-3 0  9999,2 52304  53.2185   1.7208 0001388   1.5235 358.5761 15.08803237 37208,6917.993,95.44,540.818,538.898,0.0
52304.0,STARLINK-3744,PAYLOAD,2022-12-13 01:26:09,15.08837539,0.0002384,53.2192,358.1545,33.3526,326.7616,-8.886599999999999e-06,-4.3e-06,0.0,0 STARLINK-3744,1 52304U 22041AV  22347.05983454 -.00000430  00000-0 -88866-5 0  9999,2 52304  53.2192 358.1545 0002384  33.3526 326.7616 15.08837539 37323,6917.888000000001,95.438,541.4019999999998,538.104,0.0
52304.0,STARLINK-3744,PAYLOAD,2022-12-13 10:58:28,15.08838753,0.0002502,53.2198,356.3735,38.3343,321.7827,8.9791e-06,-1.46e-06,0.0,0 STARLINK-3744,1 52304U 22041AV  22347.45727366 -.00000146  00000-0  89791-5 0  9992,2 52304  53.2198 356.3735 0002502  38.3343 321.7827 15.08838753 36163,6917.884,95.438,541.48,538.018,0.0
52304.0,STARLINK-3744,PAYLOAD,2022-12-14 07:38:29,15.08833457,0.000247,53.2194,352.5075,31.919,328.1952,6.1913e-05,6.97e-06,0.0,0 STARLINK-3744,1 52304U 22041AV  22348.31839496  .00000697  00000-0  61913-4 0  9991,2 52304  53.2194 352.5075 0002470  31.9190 328.1952 15.08833457 37513,6917.9,95.438,541.474,538.057,0.0
52304.0,STARLINK-3744,PAYLOAD,2022-12-14 10:49:16,15.08829137,0.0002518,53.2194,351.9127,30.0436,330.07,1.3795e-05,-6.9e-07,0.0,0 STARLINK-3744,1 52304U 22041AV  22348.45087994 -.00000069  00000-0  13795-4 0  9993,2 52304  53.2194 351.9127 0002518  30.0436 330.0700 15.08829137 36310,6917.9140000000025,95.438,541.521,538.0369999999998,0.0
52304.0,STARLINK-3744,PAYLOAD,2022-12-14 17:10:48,15.08829554,0.0002518,53.2195,350.723,35.0252,325.0906,-3.1187e-05,-7.85e-06,0.0,0 STARLINK-3744,1 52304U 22041AV  22348.71584276 -.00000785  00000-0 -31187-4 0  9998,2 52304  53.2195 350.7230 0002518  35.0252 325.0906 15.08829554 37578,6917.9119999999975,95.438,541.519,538.035,0.0
52304.0,STARLINK-3744,PAYLOAD,2022-12-15 01:07:44,15.08840191,0.000251,53.2184,349.2334,28.4605,331.6523,-4.5206e-05,-1.008e-05,0.0,0 STARLINK-3744,1 52304U 22041AV  22349.04703709 -.00001008  00000-0 -45206-4 0  9995,2 52304  53.2184 349.2334 0002510  28.4605 331.6523 15.08840191 37628,6917.88,95.438,541.481,538.008,0.0
52304.0,STARLINK-3744,PAYLOAD,2022-12-15 12:15:25,15.088425,0.0002509,53.219,347.1533,30.0804,330.0332,-2.4236e-05,-6.74e-06,0.0,0 STARLINK-3744,1 52304U 22041AV  22349.51071494 -.00000674  00000-0 -24236-4 0  9994,2 52304  53.2190 347.1533 0002509  30.0804 330.0332 15.08842500 36470,6917.873000000001,95.437,541.4730000000002,538.002,0.0
52304.0,STARLINK-3744,PAYLOAD,2022-12-15 17:01:35,15.08833481,0.000256,53.2189,346.2612,31.0043,329.11,2.088e-05,4.4e-07,0.0,0 STARLINK-3744,1 52304U 22041AV  22349.70943963  .00000044  00000-0  20880-4 0  9994,2 52304  53.2189 346.2612 0002560  31.0043 329.1100 15.08833481 36503,6917.9,95.438,541.536,537.994,0.0
52304.0,STARLINK-3744,PAYLOAD,2022-12-16 04:09:17,15.08835894,0.0002508,53.2183,344.18,30.6603,329.4535,2.0105e-05,3.2e-07,0.0,0 STARLINK-3744,1 52304U 22041AV  22350.17311854  .00000032  00000-0  20105-4 0  9992,2 52304  53.2183 344.1800 0002508  30.6603 329.4535 15.08835894 37799,6917.893,95.438,541.493,538.023,0.0
52304.0,STARLINK-3744,PAYLOAD,2022-12-16 08:55:26,15.08845062,0.0002503,53.2183,343.2873,37.8927,322.2241,-3.236e-05,-8.04e-06,0.0,0 STARLINK-3744,1 52304U 22041AV  22350.37183491 -.00000804  00000-0 -32360-4 0  9993,2 52304  53.2183 343.2873 0002503  37.8927 322.2241 15.08845062 36604,6917.865,95.437,541.461,537.998,0.0
52304.0,STARLINK-3744,PAYLOAD,2022-12-16 16:52:22,15.08838245,0.0002466,53.2185,341.7996,30.9141,329.1996,-1.9666e-05,-6.01e-06,0.0,0 STARLINK-3744,1 52304U 22041AV  22350.70303839 -.00000601  00000-0 -19666-4 0  9999,2 52304  53.2185 341.7996 0002466  30.9141 329.1996 15.08838245 36658,6917.886,95.438,541.457,538.045,0.0
52304.0,STARLINK-3744,PAYLOAD,2022-12-17 08:46:13,15.08837691,0.000246,53.2186,338.8256,30.6998,329.4138,2.2434e-05,6.9e-07,0.0,0 STARLINK-3744,1 52304U 22041AV  22351.36543840  .00000069  00000-0  22434-4 0  9993,2 52304  53.2186 338.8256 0002460  30.6998 329.4138 15.08837691 36752,6917.887,95.438,541.4540000000002,538.0509999999998,0.0
52304.0,STARLINK-3744,PAYLOAD,2022-12-17 16:43:09,15.08832999,0.0001789,53.2185,337.3388,19.8446,340.2616,-6.5293e-06,-3.92e-06,0.0,0 STARLINK-3744,1 52304U 22041AV  22351.69664032 -.00000392  00000-0 -65293-5 0  9998,2 52304  53.2185 337.3388 0001789  19.8446 340.2616 15.08832999 36805,6917.901999999999,95.438,541.004,538.529,0.0
52304.0,STARLINK-3744,PAYLOAD,2022-12-18 05:26:15,15.08824311,0.0002494,53.2192,334.9606,31.7757,328.3386,-4.7577e-05,-1.045e-05,0.0,0 STARLINK-3744,1 52304U 22041AV  22352.22657308 -.00001045  00000-0 -47577-4 0  9996,2 52304  53.2192 334.9606 0002494  31.7757 328.3386 15.08824311 38106,6917.928000000001,95.439,541.519,538.068,0.0
52304.0,STARLINK-3744,PAYLOAD,2022-12-18 10:12:25,15.0882268,0.0002417,53.2195,334.0682,32.7147,327.3994,-0.00014662,-2.62e-05,0.0,0 STARLINK-3744,1 52304U 22041AV  22352.42529901 -.00002620  00000-0 -14662-3 0  9993,2 52304  53.2195 334.0682 0002417  32.7147 327.3994 15.08822680 36911,6917.933000000001,95.439,541.47,538.126,0.0
52304.0,STARLINK-3744,PAYLOAD,2022-12-18 16:33:58,15.08821622,0.000235,53.2196,332.8788,33.2006,326.9133,-0.00014396,-2.578e-05,0.0,0 STARLINK-3744,1 52304U 22041AV  22352.69026211 -.00002578  00000-0 -14396-3 0  9994,2 52304  53.2196 332.8788 0002350  33.2006 326.9133 15.08821622 36950,6917.937,95.439,541.427,538.1759999999998,0.0
52304.0,STARLINK-3744,PAYLOAD,2022-12-19 08:27:48,15.08838716,0.0002456,53.219,329.9054,31.3102,328.8036,5.1761e-05,5.35e-06,0.0,0 STARLINK-3744,1 52304U 22041AV  22353.35264787  .00000535  00000-0  51761-4 0  9997,2 52304  53.2190 329.9054 0002456  31.3102 328.8036 15.08838716 38272,6917.884,95.438,541.448,538.05,0.0
52304.0,STARLINK-3744,PAYLOAD,2022-12-20 05:07:48,15.08851307,0.0002535,53.219,326.041,29.8698,330.2439,0.00021939,3.206e-05,0.0,0 STARLINK-3744,1 52304U 22041AV  22354.21375078  .00003206  00000-0  21939-3 0  9990,2 52304  53.2190 326.0410 0002535  29.8698 330.2439 15.08851307 38406,6917.846,95.437,541.465,537.957,0.0
52304.0,STARLINK-3744,PAYLOAD,2022-12-20 08:18:34,15.08844139,0.0002573,53.2189,325.4466,30.3943,329.7198,0.00023436,3.444e-05,0.0,0 STARLINK-3744,1 52304U 22041AV  22354.34623411  .00003444  00000-0  23436-3 0  9999,2 52304  53.2189 325.4466 0002573  30.3943 329.7198 15.08844139 37207,6917.868,95.437,541.513,537.953,0.0
52304.0,STARLINK-3744,PAYLOAD,2022-12-20 22:37:03,15.08840611,0.0002266,53.218,322.7682,44.9162,315.2013,6.6524e-05,7.71e-06,0.0,0 STARLINK-3744,1 52304U 22041AV  22354.94240056  .00000771  00000-0  66524-4 0  9991,2 52304  53.2180 322.7682 0002266  44.9162 315.2013 15.08840611 38513,6917.879,95.438,541.311,538.1759999999998,0.0
